COMMENT,ORIGINATOR,NORAD_CAT_ID,OBJECT_NAME,OBJECT_TYPE,CLASSIFICATION_TYPE,INTLDES,EPOCH,EPOCH_MICROSECONDS,MEAN_MOTION,ECCENTRICITY,INCLINATION,RA_OF_ASC_NODE,ARG_OF_PERICENTER,MEAN_ANOMALY,EPHEMERIS_TYPE,ELEMENT_SET_NO,REV_AT_EPOCH,BSTAR,MEAN_MOTION_DOT,MEAN_MOTION_DDOT,FILE,TLE_LINE0,TLE_LINE1,TLE_LINE2,OBJECT_ID,OBJECT_NUMBER,SEMIMAJOR_AXIS,PERIOD,APOGEE,PERIGEE,DECAYED
"GENERATED VIA SPACETRACK.ORG API","18 SPCS","51110","STARLINK-3344","PAYLOAD","U","22005G","2024-01-15 18:03:30","515328","15.08842786","0.0001389","53.2154","208.3794","89.4201","270.695","0","999","11164","0.000094151","0.00001211","0","4162881","0 STARLINK-3344","1 51110U 22005G   24015.75243652  .00001211  00000-0  94151-4 0  9992","2 51110  53.2154 208.3794 0001389  89.4201 270.6950 15.08842786111649","2022-005G","51110","6917.872","95.437","540.698","538.776","0"
"GENERATED VIA SPACETRACK.ORG API","18 SPCS","51110","STARLINK-3344","PAYLOAD","U","22005G","2024-01-15 19:38:53","550240","15.08843788","0.0001403","53.2154","208.0819","90.3236","269.7917","0","999","11054","0.00010049","0.00001312","0","4162957","0 STARLINK-3344","1 51110U 22005G   24015.81867535  .00001312  00000-0  10049-3 0  9996","2 51110  53.2154 208.0819 0001403  90.3236 269.7917 15.08843788110543","2022-005G","51110","6917.869","95.437","540.704","538.763","0"
"GENERATED VIA SPACETRACK.ORG API","18 SPCS","51110","STARLINK-3344","PAYLOAD","U","22005G","2024-01-16 13:08:08","558592","15.08838228","0.0001609","53.2167","204.8132","104.8858","255.2312","0","999","11065","0.0000093117","-0.0000014","0","4163580","0 STARLINK-3344","1 51110U 22005G   24016.54732128 -.00000140  00000-0  93117-5 0  9994","2 51110  53.2167 204.8132 0001609 104.8858 255.2312 15.08838228110652","2022-005G","51110","6917.886","95.438","540.864","538.638","0"
"GENERATED VIA SPACETRACK.ORG API","18 SPCS","51110","STARLINK-3344","PAYLOAD","U","22005G","2024-01-16 17:54:17","995104","15.0883773","0.0001572","53.2166","203.9203","104.8161","255.3005","0","999","11179","-0.0000083493","-0.00000421","0","4163677","0 STARLINK-3344","1 51110U 22005G   24016.74604161 -.00000421  00000-0 -83493-5 0  9990","2 51110  53.2166 203.9203 0001572 104.8161 255.3005 15.08837730111799","2022-005G","51110","6917.887","95.438","540.840","538.665","0"
"GENERATED VIA SPACETRACK.ORG API","18 SPCS","51110","STARLINK-3344","PAYLOAD","U","22005G","2024-01-16 17:54:17","995104","15.0883773","0.0001572","53.2166","203.9203","104.8161","255.3005","0","999","11068","-0.0000083493","-0.00000421","0","4163878","0 STARLINK-3344","1 51110U 22005G   24016.74604161 -.00000421  00000-0 -83493-5 0  9990","2 51110  53.2166 203.9203 0001572 104.8161 255.3005 15.08837730110686","2022-005G","51110","6917.887","95.438","540.840","538.665","0"
"GENERATED VIA SPACETRACK.ORG API","18 SPCS","51110","STARLINK-3344","PAYLOAD","U","22005G","2024-01-17 19:20:28","175424","15.08837852","0.0001518","53.2165","199.1609","102.3201","257.7962","0","999","11195","0.000045921","0.00000443","0","4164514","0 STARLINK-3344","1 51110U 22005G   24017.80588166  .00000443  00000-0  45921-4 0  9999","2 51110  53.2165 199.1609 0001518 102.3201 257.7962 15.08837852111953","2022-005G","51110","6917.887","95.438","540.802","538.702","0"
"GENERATED VIA SPACETRACK.ORG API","18 SPCS","51110","STARLINK-3344","PAYLOAD","U","22005G","2024-01-17 19:20:28","175424","15.08837852","0.0001518","53.2165","199.1609","102.3201","257.7962","0","999","11084","0.000045921","0.00000443","0","4164693","0 STARLINK-3344","1 51110U 22005G   24017.80588166  .00000443  00000-0  45921-4 0  9999","2 51110  53.2165 199.1609 0001518 102.3201 257.7962 15.08837852110840","2022-005G","51110","6917.887","95.438","540.802","538.702","0"
"GENERATED VIA SPACETRACK.ORG API","18 SPCS","51110","STARLINK-3344","PAYLOAD","U","22005G","2024-01-18 20:46:38","365248","15.08839472","0.0001301","53.2157","194.403","89.0137","271.1004","0","999","11100","0.0001004","0.0000131","0","4165541","0 STARLINK-3344","1 51110U 22005G   24018.86572182  .00001310  00000-0  10040-3 0  9994","2 51110  53.2157 194.4030 0001301  89.0137 271.1004 15.08839472111002","2022-005G","51110","6917.882","95.438","540.647","538.847","0"
"GENERATED VIA SPACETRACK.ORG API","18 SPCS","51110","STARLINK-3344","PAYLOAD","U","22005G","2024-01-18 20:46:38","365248","15.08839472","0.0001301","53.2157","194.403","89.0137","271.1004","0","999","11211","0.0001004","0.0000131","0","4165674","0 STARLINK-3344","1 51110U 22005G   24018.86572182  .00001310  00000-0  10040-3 0  9994","2 51110  53.2157 194.4030 0001301  89.0137 271.1004 15.08839472112115","2022-005G","51110","6917.882","95.438","540.647","538.847","0"
"GENERATED VIA SPACETRACK.ORG API","18 SPCS","51110","STARLINK-3344","PAYLOAD","U","22005G","2024-01-19 11:05:06","665280","15.08840956","0.0001354","53.216","191.7275","83.3027","276.8119","0","999","11109","0.000082889","0.00001032","0","4166138","0 STARLINK-3344","1 51110U 22005G   24019.46188270  .00001032  00000-0  82889-4 0  9994","2 51110  53.2160 191.7275 0001354  83.3027 276.8119 15.08840956111097","2022-005G","51110","6917.877","95.437","540.679","538.806","0"
"GENERATED VIA SPACETRACK.ORG API","18 SPCS","51110","STARLINK-3344","PAYLOAD","U","22005G","2024-01-19 19:02:02","100768","15.08844259","0.0001411","53.2164","190.2411","79.3953","280.7198","0","999","11114","0.00010494","0.00001383","0","4166429","0 STARLINK-3344","1 51110U 22005G   24019.79307987  .00001383  00000-0  10494-3 0  9999","2 51110  53.2164 190.2411 0001411  79.3953 280.7198 15.08844259111141","2022-005G","51110","6917.867","95.437","540.708","538.756","0"
"GENERATED VIA SPACETRACK.ORG API","18 SPCS","51110","STARLINK-3344","PAYLOAD","U","22005G","2024-01-20 17:17:25","863936","15.0884598","0.0001497","53.2165","186.0784","76.9645","283.1514","0","999","11239","0.000083366","0.00001039","0","4167118","0 STARLINK-3344","1 51110U 22005G   24020.72043824  .00001039  00000-0  83366-4 0  9998","2 51110  53.2165 186.0784 0001497  76.9645 283.1514 15.08845980112392","2022-005G","51110","6917.862","95.437","540.763","538.692","0"
"GENERATED VIA SPACETRACK.ORG API","18 SPCS","51110","STARLINK-3344","PAYLOAD","U","22005G","2024-01-20 17:17:25","863936","15.0884598","0.0001497","53.2165","186.0784","76.9645","283.1514","0","999","11128","0.000083366","0.00001039","0","4167280","0 STARLINK-3344","1 51110U 22005G   24020.72043824  .00001039  00000-0  83366-4 0  9998","2 51110  53.2165 186.0784 0001497  76.9645 283.1514 15.08845980111289","2022-005G","51110","6917.862","95.437","540.763","538.692","0"
"GENERATED VIA SPACETRACK.ORG API","18 SPCS","51110","STARLINK-3344","PAYLOAD","U","22005G","2024-01-21 17:08:14","138592","15.08828709","0.0001311","53.2169","181.6174","89.587","270.5273","0","999","11254","-0.000099926","-0.00001877","0","4168049","0 STARLINK-3344","1 51110U 22005G   24021.71405253 -.00001877  00000-0 -99926-4 0  9997","2 51110  53.2169 181.6174 0001311  89.5870 270.5273 15.08828709112544","2022-005G","51110","6917.915","95.438","540.687","538.873","0"
"GENERATED VIA SPACETRACK.ORG API","18 SPCS","51110","STARLINK-3344","PAYLOAD","U","22005G","2024-01-21 20:19:00","153984","15.08831095","0.0001313","53.218","181.0196","125.6219","234.4896","0","999","11145","-0.000099415","-0.00001869","0","4168132","0 STARLINK-3344","1 51110U 22005G   24021.84652956 -.00001869  00000-0 -99415-4 0  9999","2 51110  53.2180 181.0196 0001313 125.6219 234.4896 15.08831095111457","2022-005G","51110","6917.908","95.438","540.681","538.864","0"
"GENERATED VIA SPACETRACK.ORG API","18 SPCS","51110","STARLINK-3344","PAYLOAD","U","22005G","2024-01-22 10:37:28","246656","15.08839454","0.0001062","53.2168","178.3476","105.3834","254.7275","0","999","11265","-0.000077775","-0.00001525","0","4168550","0 STARLINK-3344","1 51110U 22005G   24022.44268804 -.00001525  00000-0 -77775-4 0  9995","2 51110  53.2168 178.3476 0001062 105.3834 254.7275 15.08839454112658","2022-005G","51110","6917.882","95.438","540.482","539.012","0"
"GENERATED VIA SPACETRACK.ORG API","18 SPCS","51110","STARLINK-3344","PAYLOAD","U","22005G","2024-01-22 16:59:00","464928","15.08844632","0.0001524","53.2167","177.1596","69.9593","290.1563","0","999","11269","0.0000071946","-0.00000173","0","4168802","0 STARLINK-3344","1 51110U 22005G   24022.70764427 -.00000173  00000-0  71946-5 0  9998","2 51110  53.2167 177.1596 0001524  69.9593 290.1563 15.08844632112699","2022-005G","51110","6917.866","95.437","540.786","538.677","0"
"GENERATED VIA SPACETRACK.ORG API","18 SPCS","51110","STARLINK-3344","PAYLOAD","U","22005G","2024-01-22 16:59:00","464928","15.08844632","0.0001524","53.2167","177.1596","69.9593","290.1563","0","999","11158","0.0000071946","-0.00000173","0","4168971","0 STARLINK-3344","1 51110U 22005G   24022.70764427 -.00000173  00000-0  71946-5 0  9998","2 51110  53.2167 177.1596 0001524  69.9593 290.1563 15.08844632111586","2022-005G","51110","6917.866","95.437","540.786","538.677","0"
"GENERATED VIA SPACETRACK.ORG API","18 SPCS","51110","STARLINK-3344","PAYLOAD","U","22005G","2024-01-23 15:14:24","278208","15.08837674","0.0001277","53.2171","172.996","76.6311","283.4823","0","999","11172","0.00023034","0.0000338","0","4169695","0 STARLINK-3344","1 51110U 22005G   24023.63500322  .00003380  00000-0  23034-3 0  9998","2 51110  53.2171 172.9960 0001277  76.6311 283.4823 15.08837674111725","2022-005G","51110","6917.887","95.438","540.636","538.869","0"
"GENERATED VIA SPACETRACK.ORG API","18 SPCS","51110","STARLINK-3344","PAYLOAD","U","22005G","2024-01-24 13:29:48","923520","15.08837758","0.0001372","53.2168","168.8293","100.2736","259.8411","0","999","11186","-0.0000076592","-0.0000041","0","4170326","0 STARLINK-3344","1 51110U 22005G   24024.56237180 -.00000410  00000-0 -76592-5 0  9992","2 51110  53.2168 168.8293 0001372 100.2736 259.8411 15.08837758111863","2022-005G","51110","6917.887","95.438","540.701","538.803","0"
